#aV2022  9  9  0  0  0.00000000     288 DD+AD WGS84 FIT  NGA
## 2226 432000.00000000   300.00000000 59831 0.0000000000000
+   32     1  2  3  4  5  6  7  8  9 10 11 12 13 14 15 16 17
+         18 19 20 21 22 23 24 25 26 27 28 29 30 31 32  0  0
+          0  0  0  0  0  0  0  0  0  0  0  0  0  0  0  0  0
+          0  0  0  0  0  0  0  0  0  0  0  0  0  0  0  0  0
+          0  0  0  0  0  0  0  0  0  0  0  0  0  0  0  0  0
++         2  2  2  2  2  2  2  2  2  2  2  2  2  2  2  2  2
++         2  2  2  2  2  2  2  2  2  2  2  2  2  2  2  0  0
++         0  0  0  0  0  0  0  0  0  0  0  0  0  0  0  0  0
++         0  0  0  0  0  0  0  0  0  0  0  0  0  0  0  0  0
++         0  0  0  0  0  0  0  0  0  0  0  0  0  0  0  0  0
%c cc cc ccc ccc cccc cccc cccc cccc ccccc ccccc ccccc ccccc
%c cc cc ccc ccc cccc cccc cccc cccc ccccc ccccc ccccc ccccc
%f  0.0000000  0.000000000  0.00000000000  0.000000000000000
%f  0.0000000  0.000000000  0.00000000000  0.000000000000000
%i    0    0    0    0      0      0      0      0         0
%i    0    0    0    0      0      0      0      0         0
/*      NGA, ST. LOUIS,MO.                                  
/*   EPHEMERIS COMPUTED FROM 2 DAYS OF DATA                 
/*   EPOCHA v8 SMOOTHER                                     
/*   G2139 IERS2010 SATIGS SATAPC                           
*  2022  9  9 18 35  0.00000000
P  1 -13954.983979  22139.283260   2970.075911    286.807754                    
V  1     -8.367440  -4737.707677  32292.125765     -0.066276                    
P  2  16019.275326 -17278.014608 -11814.253097   -646.584400                    
V  2  -4025.294404  15561.044580 -26625.019807      0.012326                    
P  3 -16898.123734  12108.715753 -16592.104760   -348.190222                    
V  3 -20896.677656   -548.242919  21143.788327     -0.064712                    
P  4  -6765.075290  15963.610850 -20091.035948   -121.135131                    
V  4 -14073.195450 -21343.622108 -12312.155661      0.055027                    
P  5  25092.313951  -6497.554074   5936.071188    -96.052324                    
V  5   7945.153740   1870.203788 -30492.809817     -0.014311                    
P  6  11569.142284   9197.408503 -22002.412694    455.290991                    
V  6 -13137.556857  24743.232558   3495.828777      0.127755                    
P  7  -3106.420715  23719.947564  11406.617640    308.843535                    
V  7  -9064.417351  11134.442863 -27087.020031     -0.028834                    
P  8 -13365.950790   7270.488743  21741.273151    -83.940681                    
V  8 -15554.111031 -22901.320935  -1551.392316     -0.015928                    
P  9   3928.078593  22663.999381 -13323.461466   -298.129942                    
V  9 -11375.956249 -12616.446493 -24994.296928      0.046690                    
P 10 -15410.631474 -11730.672730  18460.951398     -2.563904                    
V 10  22898.511799  -2302.715052  17495.966403     -0.017022                    
P 11  17389.514208  -2379.600372 -19925.387398    -15.371023                    
V 11 -11741.559524  22438.213650 -12960.315663     -0.025591                    
P 12  18482.068422 -10651.898530 -16023.920256   -275.723151                    
V 12  19844.785653   2187.607970  21897.218229     -0.060148                    
P 13  16645.257102   2515.013768  20424.027886    384.350569                    
V 13  10357.952711  24116.861836 -11140.461759      0.073143                    
P 14  13184.782074  13297.982999  18883.707631   -104.668830                    
V 14 -23935.646365   1793.945000  15346.355227      0.024929                    
P 15  12785.391780  -9088.611533  21007.900036    -30.359097                    
V 15  17970.807011  21216.065528  -1425.581202      0.030866                    
P 16 -26792.734559   -868.500791    275.192972   -523.616261                    
V 16   -586.914030  -2248.443927 -31598.405722     -0.011778                    
P 17  12785.389851  23241.790199    332.890380    657.458001                    
V 17  -1980.686752   1232.521023  32166.560433      0.039891                    
P 18   3326.403954 -23417.517973  11938.643375     54.052294                    
V 18   9087.717101 -12376.232119 -26919.483313     -0.126460                    
P 19  16871.783734  18079.853851 -10264.868058    208.506582                    
V 19   4050.131437  12040.268986  28296.944828      0.050449                    
P 20  25329.179093    188.536904  -7580.341739    487.780103                    
V 20  -8808.658029   5279.303112 -29502.415442     -0.031261                    
P 21 -16479.804808  16271.894015  12924.492848    159.637926                    
V 21   3558.801579 -15531.111033  26023.581394     -0.004478                    
P 22 -17643.570468 -16005.287945 -11510.436459    324.902600                    
V 22  -5097.985021 -14506.296169  26835.279210      0.067659                    
P 23  -4260.328644 -14626.638442  21755.144282    -39.297827                    
V 23  27507.172903  -2403.393470   3646.450744     -0.008924                    
P 24  14439.514959 -20636.248766   7411.559042    141.099018                    
V 24   -263.785366  10684.699983  29448.120287     -0.127860                    
P 25   5645.747472 -15335.550877 -21177.816695    370.234172                    
V 25  26305.087811   -707.813828   7898.935081      0.041010                    
P 26 -24768.776245  -4116.657754  -9218.586063    227.772836                    
V 26  11138.667819  -4222.517552 -27985.671374      0.016960                    
P 27 -18517.652353  -5844.507757  18081.220602    213.161742                    
V 27 -11596.450937 -20162.131033 -17794.271153     -0.036951                    
P 28  20575.571495  10267.879801  13584.172888    339.074115                    
V 28 -16574.650954   1390.723111  25226.854563     -0.018285                    
P 29  -1605.404289 -22535.480906 -13943.023172   -550.174161                    
V 29   9959.407727  14645.513641 -24978.276283     -0.032286                    
P 30   5833.535027  18114.894137  18518.426344   -536.832161                    
V 30 -12710.249695  19859.408131 -15752.938901     -0.003206                    
P 31 -13280.805627  -7815.218890 -21762.205026   -192.762049                    
V 31  13262.872947 -23905.498308    949.709159     -0.013570                    
P 32 -15978.590418 -21191.604883  -2437.707966   -228.393384                    
V 32    470.952628  -4209.096390  31389.889842     -0.111981                    
EOF
